[{"OBJECT_NAME":"STARLINK-35717","OBJECT_ID":"2025-280U","EPOCH":"2026-03-09T22:33:27.809280","MEAN_MOTION":14.98330745,"ECCENTRICITY":0.00026692,"INCLINATION":70.0028,"RA_OF_ASC_NODE":333.8107,"ARG_OF_PERICENTER":274.0028,"MEAN_ANOMALY":86.0826,"EPHEMERIS_TYPE":0,"CLASSIFICATION_TYPE":"U","NORAD_CAT_ID":66839,"ELEMENT_SET_NO":999,"REV_AT_EPOCH":1611,"BSTAR":0.0002972443,"MEAN_MOTION_DOT":3.456e-5,"MEAN_MOTION_DDOT":0},{"OBJECT_NAME":"FENGYUN 1C DEB","OBJECT_ID":"1999-025BBA","EPOCH":"2026-03-08T04:01:46.595424","MEAN_MOTION":14.68382206,"ECCENTRICITY":0.01906782,"INCLINATION":99.0027,"RA_OF_ASC_NODE":196.6188,"ARG_OF_PERICENTER":258.0888,"MEAN_ANOMALY":99.8879,"EPHEMERIS_TYPE":0,"CLASSIFICATION_TYPE":"U","NORAD_CAT_ID":30960,"ELEMENT_SET_NO":999,"REV_AT_EPOCH":99951,"BSTAR":0.0022197351,"MEAN_MOTION_DOT":0.00016894,"MEAN_MOTION_DDOT":0}]
